{
  "type": "FeatureCollection",
  "features": [
    {
      "type": "Feature",
      "properties": {
        "norad_id": 40730,
        "name": "GPS BIIF-10 (PRN 08)",
        "group": "gps-ops",
        "lat": 7.843309369938972,
        "lon": -79.14909091277536,
        "alt_km": 19900.800541364817,
        "timestamp": "2025-12-03T06:58:43.496153+00:00",
        "meta_object_name": "GPS BIIF-10 (PRN 08)",
        "meta_object_id": "2015-033A",
        "meta_epoch": "2025-12-02T06:43:54.109632",
        "meta_mean_motion": 2.00566042,
        "meta_eccentricity": 0.01103091,
        "meta_inclination": 54.1399,
        "meta_ra_of_asc_node": 275.2033,
        "meta_arg_of_pericenter": 26.5495,
        "meta_mean_anomaly": 334.0087,
        "meta_ephemeris_type": 0,
        "meta_classification_type": "U",
        "meta_norad_cat_id": 40730,
        "meta_element_set_no": 999,
        "meta_rev_at_epoch": 7604,
        "meta_bstar": 0,
        "meta_mean_motion_dot": -3.8e-07,
        "meta_mean_motion_ddot": 0,
        "tle_line1": "1 40730U 15033A   25336.28048738 -.00000038  00000+0  00000+0 0  9995",
        "tle_line2": "2 40730  54.1399 275.2033 0110309  26.5495 334.0087  2.00566042 76041"
      },
      "geometry": {
        "type": "Point",
        "coordinates": [
          -79.14909091277536,
          7.843309369938972
        ]
      }
    },
    {
      "type": "Feature",
      "properties": {
        "norad_id": 41019,
        "name": "GPS BIIF-11 (PRN 10)",
        "group": "gps-ops",
        "lat": -27.188604324044732,
        "lon": 18.772905310519363,
        "alt_km": 20219.759335282743,
        "timestamp": "2025-12-03T06:58:43.496165+00:00",
        "meta_object_name": "GPS BIIF-11 (PRN 10)",
        "meta_object_id": "2015-062A",
        "meta_epoch": "2025-12-01T08:13:28.844544",
        "meta_mean_motion": 2.00567003,
        "meta_eccentricity": 0.01104814,
        "meta_inclination": 56.824,
        "meta_ra_of_asc_node": 38.4433,
        "meta_arg_of_pericenter": 229.6355,
        "meta_mean_anomaly": 129.443,
        "meta_ephemeris_type": 0,
        "meta_classification_type": "U",
        "meta_norad_cat_id": 41019,
        "meta_element_set_no": 999,
        "meta_rev_at_epoch": 7386,
        "meta_bstar": 0,
        "meta_mean_motion_dot": -6.4e-07,
        "meta_mean_motion_ddot": 0,
        "tle_line1": "1 41019U 15062A   25335.34269496 -.00000064  00000+0  00000+0 0  9999",
        "tle_line2": "2 41019  56.8240  38.4433 0110481 229.6355 129.4430  2.00567003 73864"
      },
      "geometry": {
        "type": "Point",
        "coordinates": [
          18.772905310519363,
          -27.188604324044732
        ]
      }
    },
    {
      "type": "Feature",
      "properties": {
        "norad_id": 41328,
        "name": "GPS BIIF-12 (PRN 32)",
        "group": "gps-ops",
        "lat": -55.269152606718336,
        "lon": 1.4410205500450148,
        "alt_km": 19965.047965564256,
        "timestamp": "2025-12-03T06:58:43.496177+00:00",
        "meta_object_name": "GPS BIIF-12 (PRN 32)",
        "meta_object_id": "2016-007A",
        "meta_epoch": "2025-11-30T22:13:59.162880",
        "meta_mean_motion": 2.00561199,
        "meta_eccentricity": 0.00916001,
        "meta_inclination": 55.3993,
        "meta_ra_of_asc_node": 97.326,
        "meta_arg_of_pericenter": 243.286,
        "meta_mean_anomaly": 115.7578,
        "meta_ephemeris_type": 0,
        "meta_classification_type": "U",
        "meta_norad_cat_id": 41328,
        "meta_element_set_no": 999,
        "meta_rev_at_epoch": 7186,
        "meta_bstar": 0,
        "meta_mean_motion_dot": 2.3e-07,
        "meta_mean_motion_ddot": 0,
        "tle_line1": "1 41328U 16007A   25334.92637920  .00000023  00000+0  00000+0 0  9990",
        "tle_line2": "2 41328  55.3993  97.3260 0091600 243.2860 115.7578  2.00561199 71861"
      },
      "geometry": {
        "type": "Point",
        "coordinates": [
          1.4410205500450148,
          -55.269152606718336
        ]
      }
    },
    {
      "type": "Feature",
      "properties": {
        "norad_id": 43873,
        "name": "GPS BIII-1  (PRN 04)",
        "group": "gps-ops",
        "lat": 15.589050036521153,
        "lon": -91.12373604721128,
        "alt_km": 20098.83374611046,
        "timestamp": "2025-12-03T06:58:43.496189+00:00",
        "meta_object_name": "GPS BIII-1  (PRN 04)",
        "meta_object_id": "2018-109A",
        "meta_epoch": "2025-12-02T13:53:48.865056",
        "meta_mean_motion": 2.00553145,
        "meta_eccentricity": 0.00371805,
        "meta_inclination": 55.5613,
        "meta_ra_of_asc_node": 99.9484,
        "meta_arg_of_pericenter": 194.5324,
        "meta_mean_anomaly": 172.7169,
        "meta_ephemeris_type": 0,
        "meta_classification_type": "U",
        "meta_norad_cat_id": 43873,
        "meta_element_set_no": 999,
        "meta_rev_at_epoch": 5113,
        "meta_bstar": 0,
        "meta_mean_motion_dot": 1e-07,
        "meta_mean_motion_ddot": 0,
        "tle_line1": "1 43873U 18109A   25336.57903779  .00000010  00000+0  00000+0 0  9999",
        "tle_line2": "2 43873  55.5613  99.9484 0037180 194.5324 172.7169  2.00553145 51130"
      },
      "geometry": {
        "type": "Point",
        "coordinates": [
          -91.12373604721128,
          15.589050036521153
        ]
      }
    },
    {
      "type": "Feature",
      "properties": {
        "norad_id": 44506,
        "name": "GPS BIII-2  (PRN 18)",
        "group": "gps-ops",
        "lat": 44.03293827452999,
        "lon": 20.180896956981385,
        "alt_km": 20295.943002301847,
        "timestamp": "2025-12-03T06:58:43.496202+00:00",
        "meta_object_name": "GPS BIII-2  (PRN 18)",
        "meta_object_id": "2019-056A",
        "meta_epoch": "2025-12-02T10:49:28.764768",
        "meta_mean_motion": 2.00565569,
        "meta_eccentricity": 0.00578163,
        "meta_inclination": 55.7251,
        "meta_ra_of_asc_node": 338.9617,
        "meta_arg_of_pericenter": 198.402,
        "meta_mean_anomaly": 332.9603,
        "meta_ephemeris_type": 0,
        "meta_classification_type": "U",
        "meta_norad_cat_id": 44506,
        "meta_element_set_no": 999,
        "meta_rev_at_epoch": 4612,
        "meta_bstar": 0,
        "meta_mean_motion_dot": -6.1e-07,
        "meta_mean_motion_ddot": 0,
        "tle_line1": "1 44506U 19056A   25336.45102737 -.00000061  00000+0  00000+0 0  9994",
        "tle_line2": "2 44506  55.7251 338.9617 0057816 198.4020 332.9603  2.00565569 46121"
      },
      "geometry": {
        "type": "Point",
        "coordinates": [
          20.180896956981385,
          44.03293827452999
        ]
      }
    },
    {
      "type": "Feature",
      "properties": {
        "norad_id": 45854,
        "name": "GPS BIII-3  (PRN 23)",
        "group": "gps-ops",
        "lat": 1.781357006195271,
        "lon": 37.74853187385392,
        "alt_km": 20332.150249505994,
        "timestamp": "2025-12-03T06:58:43.496213+00:00",
        "meta_object_name": "GPS BIII-3  (PRN 23)",
        "meta_object_id": "2020-041A",
        "meta_epoch": "2025-12-02T12:43:29.981568",
        "meta_mean_motion": 2.00561721,
        "meta_eccentricity": 0.0060247,
        "meta_inclination": 56.5397,
        "meta_ra_of_asc_node": 36.584,
        "meta_arg_of_pericenter": 202.9657,
        "meta_mean_anomaly": 329.812,
        "meta_ephemeris_type": 0,
        "meta_classification_type": "U",
        "meta_norad_cat_id": 45854,
        "meta_element_set_no": 999,
        "meta_rev_at_epoch": 4009,
        "meta_bstar": 0,
        "meta_mean_motion_dot": -6.6e-07,
        "meta_mean_motion_ddot": 0,
        "tle_line1": "1 45854U 20041A   25336.53020812 -.00000066  00000+0  00000+0 0  9994",
        "tle_line2": "2 45854  56.5397  36.5840 0060247 202.9657 329.8120  2.00561721 40091"
      },
      "geometry": {
        "type": "Point",
        "coordinates": [
          37.74853187385392,
          1.781357006195271
        ]
      }
    },
    {
      "type": "Feature",
      "properties": {
        "norad_id": 46826,
        "name": "GPS BIII-4  (PRN 14)",
        "group": "gps-ops",
        "lat": -21.441808816719654,
        "lon": -157.83112437543235,
        "alt_km": 20291.656844287707,
        "timestamp": "2025-12-03T06:58:43.496225+00:00",
        "meta_object_name": "GPS BIII-4  (PRN 14)",
        "meta_object_id": "2020-078A",
        "meta_epoch": "2025-11-12T03:01:29.190720",
        "meta_mean_motion": 2.00567032,
        "meta_eccentricity": 0.0063911,
        "meta_inclination": 54.0223,
        "meta_ra_of_asc_node": 219.5836,
        "meta_arg_of_pericenter": 203.4986,
        "meta_mean_anomaly": 326.7754,
        "meta_ephemeris_type": 0,
        "meta_classification_type": "U",
        "meta_norad_cat_id": 46826,
        "meta_element_set_no": 999,
        "meta_rev_at_epoch": 3715,
        "meta_bstar": 0,
        "meta_mean_motion_dot": -3.4e-07,
        "meta_mean_motion_ddot": 0,
        "tle_line1": "1 46826U 20078A   25316.12603230 -.00000034  00000+0  00000+0 0  9993",
        "tle_line2": "2 46826  54.0223 219.5836 0063911 203.4986 326.7754  2.00567032 37155"
      },
      "geometry": {
        "type": "Point",
        "coordinates": [
          -157.83112437543235,
          -21.441808816719654
        ]
      }
    }
  ]
}